[{"OBJECT_NAME":"COSMOS 2565","OBJECT_ID":"2022-163A","EPOCH":"2026-03-09T23:20:24.133056","MEAN_MOTION":13.96674174,"ECCENTRICITY":0.00058338,"INCLINATION":67.1493,"RA_OF_ASC_NODE":348.3576,"ARG_OF_PERICENTER":276.4111,"MEAN_ANOMALY":83.6309,"EPHEMERIS_TYPE":0,"CLASSIFICATION_TYPE":"U","NORAD_CAT_ID":54381,"ELEMENT_SET_NO":999,"REV_AT_EPOCH":16691,"BSTAR":3.972057e-5,"MEAN_MOTION_DOT":-2.0e-7,"MEAN_MOTION_DDOT":0},{"OBJECT_NAME":"CZ-6A DEB","OBJECT_ID":"2022-151XB","EPOCH":"2026-03-09T19:55:31.287936","MEAN_MOTION":13.96972924,"ECCENTRICITY":0.0109455,"INCLINATION":98.8525,"RA_OF_ASC_NODE":39.552,"ARG_OF_PERICENTER":331.9468,"MEAN_ANOMALY":27.5824,"EPHEMERIS_TYPE":0,"CLASSIFICATION_TYPE":"U","NORAD_CAT_ID":55234,"ELEMENT_SET_NO":999,"REV_AT_EPOCH":16912,"BSTAR":0.00054278507,"MEAN_MOTION_DOT":7.53e-6,"MEAN_MOTION_DDOT":0}]
